[{"OBJECT_NAME":"LILIUM-1","OBJECT_ID":"2023-185F","EPOCH":"2026-03-09T22:28:56.680896","MEAN_MOTION":15.66968582,"ECCENTRICITY":0.00057383,"INCLINATION":97.3316,"RA_OF_ASC_NODE":147.7332,"ARG_OF_PERICENTER":186.5847,"MEAN_ANOMALY":173.5339,"EPHEMERIS_TYPE":0,"CLASSIFICATION_TYPE":"U","NORAD_CAT_ID":58467,"ELEMENT_SET_NO":999,"REV_AT_EPOCH":12691,"BSTAR":0.0013028575,"MEAN_MOTION_DOT":0.00140249,"MEAN_MOTION_DDOT":0},{"OBJECT_NAME":"STARLINK-11172 [DTC]","OBJECT_ID":"2024-124L","EPOCH":"2026-03-09T12:05:05.242560","MEAN_MOTION":15.69684856,"ECCENTRICITY":0.00012763,"INCLINATION":53.1577,"RA_OF_ASC_NODE":162.2654,"ARG_OF_PERICENTER":118.8783,"MEAN_ANOMALY":241.2363,"EPHEMERIS_TYPE":0,"CLASSIFICATION_TYPE":"U","NORAD_CAT_ID":60193,"ELEMENT_SET_NO":999,"REV_AT_EPOCH":9650,"BSTAR":-7.6526493e-5,"MEAN_MOTION_DOT":-9.839e-5,"MEAN_MOTION_DDOT":0}]
